[{"OBJECT_NAME":"STARLINK-35232","OBJECT_ID":"2025-198AC","EPOCH":"2026-03-09T18:07:58.649952","MEAN_MOTION":15.30185254,"ECCENTRICITY":9.932e-5,"INCLINATION":53.1592,"RA_OF_ASC_NODE":270.4379,"ARG_OF_PERICENTER":36.0467,"MEAN_ANOMALY":324.0601,"EPHEMERIS_TYPE":0,"CLASSIFICATION_TYPE":"U","NORAD_CAT_ID":65518,"ELEMENT_SET_NO":999,"REV_AT_EPOCH":2863,"BSTAR":-0.00092588612,"MEAN_MOTION_DOT":-0.00027667,"MEAN_MOTION_DDOT":0},{"OBJECT_NAME":"KUIPER-00175","OBJECT_ID":"2025-301C","EPOCH":"2026-03-09T23:30:37.840032","MEAN_MOTION":15.30996371,"ECCENTRICITY":0.00022792,"INCLINATION":51.8781,"RA_OF_ASC_NODE":63.6978,"ARG_OF_PERICENTER":50.5695,"MEAN_ANOMALY":309.549,"EPHEMERIS_TYPE":0,"CLASSIFICATION_TYPE":"U","NORAD_CAT_ID":67135,"ELEMENT_SET_NO":999,"REV_AT_EPOCH":1385,"BSTAR":0.00066732304,"MEAN_MOTION_DOT":0.00019968,"MEAN_MOTION_DDOT":0}]
